ONEWEB-0319             
1 49105U 21075AG  25244.54002119  .00000043  00000+0  78125-4 0  9996
2 49105  87.9027  63.3050 0002107  96.9340 263.2032 13.17648641195590
ONEWEB-0323             
1 49106U 21075AH  25244.48302813 -.00000324  00000+0 -93723-3 0  9998
2 49106  87.8879  48.0113 0002363 103.3940 256.7452 13.12442466196684
ONEWEB-0329             
1 49107U 21075AJ  25244.54845581  .00000061  00000+0  12497-3 0  9995
2 49107  87.9023  63.3074 0001903  96.3152 263.8196 13.17650441195578
ONEWEB-0330             
1 49108U 21075AK  25244.54929075  .00000077  00000+0  16568-3 0  9997
2 49108  87.9026  63.3105 0001644  98.7917 261.3401 13.17652295195610
ONEWEB-0292             
1 49186U 21083A   25244.60483265  .00000224  00000+0  57746-3 0  9992
2 49186  87.9016  17.5931 0001922  98.6064 261.5283 13.13469807193040
ONEWEB-0303             
1 49187U 21083B   25244.44218557  .00000054  00000+0  10444-3 0  9990
2 49187  87.9168  32.7939 0001941  96.8615 263.2738 13.18687153191929
ONEWEB-0306             
1 49188U 21083C   25244.43228854  .00000134  00000+0  30662-3 0  9994
2 49188  87.9168  32.7814 0001550  93.4177 266.7133 13.18687518191960
ONEWEB-0307             
1 49189U 21083D   25244.59888997  .00000330  00000+0  86829-3 0  9996
2 49189  87.9005  17.5933 0001476 104.9802 255.1491 13.13472732193049
